NORAD_CAT_ID,OBJECT_NAME,OBJECT_TYPE,EPOCH,MEAN_MOTION,ECCENTRICITY,INCLINATION,RA_OF_ASC_NODE,ARG_OF_PERICENTER,MEAN_ANOMALY,BSTAR,MEAN_MOTION_DOT,MEAN_MOTION_DDOT,TLE_LINE0,TLE_LINE1,TLE_LINE2,SEMIMAJOR_AXIS,PERIOD,APOGEE,PERIGEE,DECAYED
51972.0,STARLINK-3671,PAYLOAD,2023-10-08 14:37:43,15.06409675,0.0001444,53.0558,35.1833,83.9819,276.1334,0.00036403,5.146e-05,0.0,0 STARLINK-3671,1 51972U 22025S   23281.60953268  .00005146  00000-0  36403-3 0  9995,2 51972  53.0558  35.1833 0001444  83.9819 276.1334 15.06409675 87820,6925.319,95.592,548.184,546.184,0.0
51972.0,STARLINK-3671,PAYLOAD,2023-10-09 00:10:57,15.06405156,0.0001177,53.0546,33.395,76.6731,283.4389,0.00021644,2.944e-05,0.0,0 STARLINK-3671,1 51972U 22025S   23282.00761376  .00002944  00000-0  21644-3 0  9991,2 51972  53.0546  33.3950 0001177  76.6731 283.4389 15.06405156 88981,6925.333,95.592,548.013,546.383,0.0
51972.0,STARLINK-3671,PAYLOAD,2023-10-09 14:30:49,15.06407158,0.0001529,53.0569,30.7193,99.9354,260.1808,0.0002529,3.488e-05,0.0,0 STARLINK-3671,1 51972U 22025S   23282.60473506  .00003488  00000-0  25290-3 0  9997,2 51972  53.0569  30.7193 0001529  99.9354 260.1808 15.06407158 87976,6925.327,95.592,548.251,546.133,0.0
51972.0,STARLINK-3671,PAYLOAD,2023-10-09 16:06:21,15.06412979,0.0001691,53.0583,30.4208,100.8776,259.2403,0.00041248,5.87e-05,0.0,0 STARLINK-3671,1 51972U 22025S   23282.67108039  .00005870  00000-0  41248-3 0  9998,2 51972  53.0583  30.4208 0001691 100.8776 259.2403 15.06412979 87984,6925.309,95.591,548.345,546.003,0.0
51972.0,STARLINK-3671,PAYLOAD,2023-10-10 12:48:21,15.06409595,0.0001615,53.0568,26.545,93.5052,266.6122,0.00042147,6.003e-05,0.0,0 STARLINK-3671,1 51972U 22025S   23283.53358788  .00006003  00000-0  42147-3 0  9990,2 51972  53.0568  26.5450 0001615  93.5052 266.6122 15.06409595 89211,6925.319,95.592,548.303,546.066,0.0
51972.0,STARLINK-3671,PAYLOAD,2023-10-10 14:23:54,15.06413143,0.0001572,53.0565,26.2471,82.6659,277.4508,0.00056367,8.127e-05,0.0,0 STARLINK-3671,1 51972U 22025S   23283.59993431  .00008127  00000-0  56367-3 0  9994,2 51972  53.0565  26.2471 0001572  82.6659 277.4508 15.06413143 88123,6925.308,95.591,548.262,546.085,0.0
51972.0,STARLINK-3671,PAYLOAD,2023-10-11 12:41:28,15.0639239,0.0001613,53.056,22.0772,98.1406,261.9766,0.00055511,7.995e-05,0.0,0 STARLINK-3671,1 51972U 22025S   23284.52879818  .00007995  00000-0  55511-3 0  9992,2 51972  53.0560  22.0772 0001613  98.1406 261.9766 15.06392390 89365,6925.372,95.593,548.354,546.12,0.0
51972.0,STARLINK-3671,PAYLOAD,2023-10-11 23:50:15,15.06392565,0.0001741,53.0565,19.994,75.9722,284.146,0.00048779,6.99e-05,0.0,0 STARLINK-3671,1 51972U 22025S   23284.99323090  .00006990  00000-0  48779-3 0  9991,2 51972  53.0565  19.9940 0001741  75.9722 284.1460 15.06392565 89438,6925.371,95.593,548.442,546.031,0.0
51972.0,STARLINK-3671,PAYLOAD,2023-10-12 12:34:34,15.06400716,0.0001448,53.0549,17.6114,79.5438,280.5714,0.00061329,8.865e-05,0.0,0 STARLINK-3671,1 51972U 22025S   23285.52400508  .00008865  00000-0  61329-3 0  9990,2 51972  53.0549  17.6114 0001448  79.5438 280.5714 15.06400716 88413,6925.346,95.592,548.214,546.209,0.0
51972.0,STARLINK-3671,PAYLOAD,2023-10-13 12:27:39,15.0640463,0.000182,53.0578,13.1432,96.9165,263.2031,0.00033912,4.774e-05,0.0,0 STARLINK-3671,1 51972U 22025S   23286.51920716  .00004774  00000-0  33912-3 0  9990,2 51972  53.0578  13.1432 0001820  96.9165 263.2031 15.06404630 89660,6925.334,95.592,548.46,545.939,0.0
51972.0,STARLINK-3671,PAYLOAD,2023-10-14 12:20:43,15.06422438,0.0001549,53.0564,8.6771,89.6803,270.4363,0.0004819,6.908e-05,0.0,0 STARLINK-3671,1 51972U 22025S   23287.51439793  .00006908  00000-0  48190-3 0  9996,2 51972  53.0564   8.6771 0001549  89.6803 270.4363 15.06422438 88715,6925.28,95.591,548.218,546.072,0.0
51972.0,STARLINK-3671,PAYLOAD,2023-10-14 21:53:58,15.06400565,0.0001659,53.0573,6.8893,92.3384,267.7795,-1.9082e-05,-5.66e-06,0.0,0 STARLINK-3671,1 51972U 22025S   23287.91248529 -.00000566  00000-0 -19082-4 0  9990,2 51972  53.0573   6.8893 0001659  92.3384 267.7795 15.06400565 88778,6925.347,95.592,548.361,546.063,0.0
51972.0,STARLINK-3671,PAYLOAD,2023-10-15 12:13:50,15.0638303,0.0001654,53.0577,4.2128,109.0344,251.0824,-0.00027406,-4.359e-05,0.0,0 STARLINK-3671,1 51972U 22025S   23288.50961595 -.00004359  00000-0 -27406-3 0  9993,2 51972  53.0577   4.2128 0001654 109.0344 251.0824 15.06383030 89960,6925.401,95.593,548.411,546.12,0.0
51972.0,STARLINK-3671,PAYLOAD,2023-10-15 21:47:05,15.06387031,0.0001719,53.0577,2.4253,110.536,249.5813,4.72e-05,4.21e-06,0.0,0 STARLINK-3671,1 51972U 22025S   23288.90769990  .00000421  00000-0  47200-4 0  9991,2 51972  53.0577   2.4253 0001719 110.5360 249.5813 15.06387031 88926,6925.388,95.593,548.444,546.063,0.0
51972.0,STARLINK-3671,PAYLOAD,2023-10-16 08:55:52,15.06400979,0.0001533,53.0567,0.3386,109.6004,250.515,0.00087595,0.0001279,0.0,0 STARLINK-3671,1 51972U 22025S   23289.37212980  .00012790  00000-0  87595-3 0  9997,2 51972  53.0567   0.3386 0001533 109.6004 250.5150 15.06400979 90091,6925.346,95.592,548.272,546.149,0.0
51972.0,STARLINK-3671,PAYLOAD,2023-10-16 12:06:56,15.06411394,0.0001508,53.0562,359.7432,110.8701,249.2449,0.0012929,0.00019034,0.0,0 STARLINK-3671,1 51972U 22025S   23289.50482281  .00019034  00000-0  12929-2 0  9991,2 51972  53.0562 359.7432 0001508 110.8701 249.2449 15.06411394 89018,6925.314,95.591,548.223,546.134,0.0
51972.0,STARLINK-3671,PAYLOAD,2023-10-17 12:00:00,15.0643224,0.0001458,53.055,355.2754,110.8851,249.2294,0.00090377,0.00013217,0.0,0 STARLINK-3671,1 51972U 22025S   23290.50001053  .00013217  00000-0  90377-3 0  9998,2 51972  53.0550 355.2754 0001458 110.8851 249.2294 15.06432240 90263,6925.25,95.59,548.124,546.105,0.0
51972.0,STARLINK-3671,PAYLOAD,2023-10-17 13:35:33,15.06434658,0.0001302,53.0541,354.9772,98.547,261.5667,0.00094242,0.00013797,0.0,0 STARLINK-3671,1 51972U 22025S   23290.56635617  .00013797  00000-0  94242-3 0  9991,2 51972  53.0541 354.9772 0001302  98.5470 261.5667 15.06434658 89170,6925.242,95.59,548.009,546.206,0.0
51972.0,STARLINK-3671,PAYLOAD,2023-10-17 21:33:15,15.06410871,0.0001299,53.0548,353.4883,105.3741,254.7391,2.4064e-05,7.7e-07,0.0,0 STARLINK-3671,1 51972U 22025S   23290.89809148  .00000077  00000-0  24064-4 0  9992,2 51972  53.0548 353.4883 0001299 105.3741 254.7391 15.06410871 89222,6925.315,95.591,548.08,546.281,0.0
51972.0,STARLINK-3671,PAYLOAD,2023-10-18 11:53:06,15.06393208,0.0001554,53.0539,350.8072,98.6583,261.4582,0.00010134,1.228e-05,0.0,0 STARLINK-3671,1 51972U 22025S   23291.49521971  .00001228  00000-0  10134-3 0  9995,2 51972  53.0539 350.8072 0001554  98.6583 261.4582 15.06393208 90419,6925.369,95.593,548.311,546.158,0.0
51972.0,STARLINK-3671,PAYLOAD,2023-10-18 21:26:21,15.06388466,0.0001517,53.0531,349.0187,101.479,258.6369,0.00041469,5.899e-05,0.0,0 STARLINK-3671,1 51972U 22025S   23291.89330526  .00005899  00000-0  41469-3 0  9996,2 51972  53.0531 349.0187 0001517 101.4790 258.6369 15.06388466 89374,6925.384,95.593,548.299,546.198,0.0
51972.0,STARLINK-3671,PAYLOAD,2023-10-19 13:21:44,15.06417123,0.0001651,53.0547,346.0382,100.8742,259.2433,0.0011366,0.00016696,0.0,0 STARLINK-3671,1 51972U 22025S   23292.55677005  .00016696  00000-0  11366-2 0  9995,2 51972  53.0547 346.0382 0001651 100.8742 259.2433 15.06417123 89477,6925.296,95.591,548.304,546.018,0.0
51972.0,STARLINK-3671,PAYLOAD,2023-10-19 21:19:27,15.06395528,0.0001893,53.0552,344.5526,88.3903,271.7302,0.00021613,2.939e-05,0.0,0 STARLINK-3671,1 51972U 22025S   23292.88851108  .00002939  00000-0  21613-3 0  9991,2 51972  53.0552 344.5526 0001893  88.3903 271.7302 15.06395528 89527,6925.362,95.592,548.538,545.916,0.0
51972.0,STARLINK-3671,PAYLOAD,2023-10-20 03:41:36,15.0639933,0.0001586,53.0536,343.3605,95.6183,264.4987,0.00036832,5.209e-05,0.0,0 STARLINK-3671,1 51972U 22025S   23293.15389711  .00005209  00000-0  36832-3 0  9990,2 51972  53.0536 343.3605 0001586  95.6183 264.4987 15.06399330 90664,6925.351,95.592,548.314,546.117,0.0
51972.0,STARLINK-3671,PAYLOAD,2023-10-20 10:03:46,15.06397717,0.0001463,53.0547,342.1662,109.1457,250.969,0.00029865,4.169e-05,0.0,0 STARLINK-3671,1 51972U 22025S   23293.41928418  .00004169  00000-0  29865-3 0  9994,2 51972  53.0547 342.1662 0001463 109.1457 250.9690 15.06397717 89605,6925.356,95.592,548.234,546.207,0.0
51972.0,STARLINK-3671,PAYLOAD,2023-10-21 09:56:51,15.06405082,0.0001403,53.0557,337.7009,96.0112,264.1037,0.00060382,8.725e-05,0.0,0 STARLINK-3671,1 51972U 22025S   23294.41449037  .00008725  00000-0  60382-3 0  9991,2 51972  53.0557 337.7009 0001403  96.0112 264.1037 15.06405082 90853,6925.333,95.592,548.17,546.226,0.0
51972.0,STARLINK-3671,PAYLOAD,2023-10-21 19:30:06,15.06403978,0.0001351,53.0555,335.9143,94.7804,265.3339,0.00036788,5.203e-05,0.0,0 STARLINK-3671,1 51972U 22025S   23294.81257049  .00005203  00000-0  36788-3 0  9996,2 51972  53.0555 335.9143 0001351  94.7804 265.3339 15.06403978 89819,6925.336,95.592,548.137,546.266,0.0
51972.0,STARLINK-3671,PAYLOAD,2023-10-22 09:49:57,15.06400132,0.0001532,53.0567,333.2368,100.7013,259.4148,0.00018914,2.537e-05,0.0,0 STARLINK-3671,1 51972U 22025S   23295.40969283  .00002537  00000-0  18914-3 0  9990,2 51972  53.0567 333.2368 0001532 100.7013 259.4148 15.06400132 91008,6925.348,95.592,548.274,546.152,0.0
51972.0,STARLINK-3671,PAYLOAD,2023-10-22 13:01:01,15.06404461,0.0001529,53.0567,332.639,100.0731,260.043,0.00021283,2.89e-05,0.0,0 STARLINK-3671,1 51972U 22025S   23295.54238376  .00002890  00000-0  21283-3 0  9992,2 51972  53.0567 332.6390 0001529 100.0731 260.0430 15.06404461 89921,6925.335,95.592,548.259,546.141,0.0
51972.0,STARLINK-3671,PAYLOAD,2023-10-22 19:23:12,15.06386772,0.0002019,53.0565,331.4472,89.6347,270.4874,-0.00012399,-2.127e-05,0.0,0 STARLINK-3671,1 51972U 22025S   23295.80778120 -.00002127  00000-0 -12399-3 0  9990,2 51972  53.0565 331.4472 0002019  89.6347 270.4874 15.06386772 91066,6925.389,95.593,548.652,545.856,0.0
